[{"line1":"1 20662U 90054D   22221.44079824  .00000004  00000-0  00000-0 0  9995","line2":"2 20662  13.9179 346.0951 0017753  78.0918 282.1619  1.00513966117641"},{"line1":"1 20663U 90055A   22221.28880376  .00001251  00000-0  12124-3 0  9999","line2":"2 20663  62.7921  73.0180 0121992  55.3517 305.9005 14.93021711740186"},{"line1":"1 20666U 90055D   22221.26967568  .00001054  00000-0  10191-3 0  9992","line2":"2 20666  62.7852 347.4440 0131388  77.6711 283.9056 14.93358943742141"},{"line1":"1 20667U 90056A   22221.54336876 -.00000013  00000-0  00000-0 0  9997","line2":"2 20667  13.6626  19.8947 0002495 353.6715  24.8481  0.98432635 32625"},{"line1":"1 20669U 90056C   22221.57790878  .00002073  00000-0  10542-2 0  9999","line2":"2 20669  24.5849  14.1403 7079046 310.6580   6.5447  2.52362331274440"},{"line1":"1 20670U 90057A   22221.33096338  .00000023  00000-0  69704-5 0  9996","line2":"2 20670  82.5483 318.4370 0017270  78.5709 281.7390 13.84714056622780"},{"line1":"1 20671U 90057B   22221.26359285  .00000012  00000-0 -24221-5 0  9996","line2":"2 20671  82.5494 318.4414 0016560  79.8839 280.4189 13.84641127622826"},{"line1":"1 20672U 65108AD  22220.95410046 -.00000246  00000-0 -71111-3 0  9992","line2":"2 20672  27.0159  82.5134 6797809  45.7614 356.9652  2.69828171  9480"},{"line1":"1 20673U 76126CG  22221.35297157  .00001903  00000-0  38592-3 0  9991","line2":"2 20673  65.5807 169.6779 0440510 196.0076 162.6710 14.16813483524697"},{"line1":"1 20674U 84081E   22221.51915214  .00000068  00000-0  15774-2 0  9997","line2":"2 20674   6.7141 227.5007 6994520 220.4817 355.3730  2.40691524263585"},{"line1":"1 20693U 90061A   22220.85049265 -.00000069  00000-0  00000-0 0  9999","line2":"2 20693  14.0114 346.9487 0005499  43.6207 303.2756  1.00276735117379"},{"line1":"1 20696U 90061D   22221.50257823  .00000112  00000-0  00000+0 0  9993","line2":"2 20696  13.9830 346.8468 0034420 173.4701   4.7479  1.00290274116299"},{"line1":"1 20705U 90063A   22221.40088380 -.00000002  00000-0  00000-0 0  9995","line2":"2 20705  15.0405   8.9205 0037737 291.8808 239.2293  0.98605773118676"},{"line1":"1 20706U 90063B   22221.27757816 -.00000289  00000-0  00000-0 0  9995","line2":"2 20706  14.0498  13.9833 0003681 148.1799 208.3218  0.99549960108900"},{"line1":"1 20707U 90064A   22221.00259231 -.00000621  00000-0  00000-0 0  9996","line2":"2 20707  68.3168 270.5597 5626226  62.2534 343.3057  2.00775254234585"},{"line1":"1 20710U 90064D   22221.26460489 -.00000203  00000-0  00000-0 0  9993","line2":"2 20710  69.0893 188.3780 5749104  54.7647 346.3363  2.04545071239274"},{"line1":"1 20712U 90065A   22221.22752738  .00000822  00000-0  32172-3 0  9997","line2":"2 20712  17.5199 189.5206 7106830 241.1272  31.5292  2.46881722274703"},{"line1":"1 20713U 90065B   22221.19884258  .00001973  00000-0  16598-2 0  9998","line2":"2 20713  17.7025 111.8936 6909357 348.8657   1.5828  2.71801541304040"},{"line1":"1 20717U 90063C   22221.02209168  .00000296  00000-0  83343-3 0  9993","line2":"2 20717   4.3539 355.3606 7174130 298.9805   8.4073  2.34639300263301"},{"line1":"1 20718U 90063D   22221.55262568  .00007177  00000-0  37761-2 0  9992","line2":"2 20718   5.0075 167.2122 6176555 292.2983  15.2374  3.73043341368498"},{"line1":"1 20720U 90066A   22221.17787503 -.00000015  00000-0  13131-4 0  9999","line2":"2 20720  73.5989 118.1399 0024952 114.0517  57.0029 12.40750074450762"},{"line1":"1 20721U 90066B   22221.45572872 -.00000019  00000-0 -14038-4 0  9994","line2":"2 20721  73.5991 107.1010 0023211 104.3964  68.1478 12.41070727451144"},{"line1":"1 20724U 90068A   22221.08869324 -.00000031  00000-0  00000-0 0  9992","line2":"2 20724  53.9520 123.8123 0039332 307.0813 319.7856  1.87185415223548"},{"line1":"1 20735U 90070A   22221.38001330  .00000024  00000-0  70684-4 0  9995","line2":"2 20735  82.5645  96.9784 0014946  34.1130 139.9541 12.65303722477885"},{"line1":"1 20736U 90070B   22221.26071627  .00000003  00000-0 -43786-4 0  9990","line2":"2 20736  82.5801 146.9793 0004551  63.4375  89.8763 12.62505085474646"},{"line1":"1 20737U 90070C   22221.24646237  .00000001  00000-0 -51379-4 0  9999","line2":"2 20737  82.5695 127.0589 0005358  85.5739  72.3819 12.63291160475575"},{"line1":"1 20738U 90070D   22221.19189991  .00000009  00000-0 -82367-5 0  9993","line2":"2 20738  82.5752 122.6780 0009794  69.0977  84.2467 12.64039470476480"},{"line1":"1 20739U 90070E   22221.48081616  .00000021  00000-0  54245-4 0  9997","line2":"2 20739  82.5753 114.3740 0012435  54.9827 117.4338 12.64699838477273"},{"line1":"1 20740U 90070F   22221.34703398  .00000028  00000-0  93466-4 0  9997","line2":"2 20740  82.5709  92.8038 0019288 351.2346  51.3034 12.66082719478870"},{"line1":"1 20741U 90070G   22221.33930781  .00000034  00000-0  14604-3 0  9998","line2":"2 20741  82.5730 237.8493 0035150 329.9197  41.3995 12.55700682466835"},{"line1":"1 20760U 65108AE  22219.34412338  .00000291  00000-0  26385-2 0  9997","line2":"2 20760  27.0931 233.9131 6695963 336.0878   7.6782  2.82407015111350"},{"line1":"1 20762U 90074A   22221.67121728 -.00000216  00000-0  00000+0 0  9999","line2":"2 20762  13.8411  16.8358 0004360 120.6626  56.6960  0.99211991116555"},{"line1":"1 20763U 90074B   22221.17553569  .00003585  00000-0  32880-3 0  9993","line2":"2 20763  24.7590 156.9094 0388374  63.2671 300.7044 14.47669544672631"},{"line1":"1 20764U 90074C   22219.42047528 -.00000230  00000-0  17471-3 0  9996","line2":"2 20764  21.4889  22.8472 7286223 295.5543   8.3463  2.17830967253008"},{"line1":"1 20771U 90077A   22220.68452355 -.00000258  00000-0  00000-0 0  9992","line2":"2 20771  15.5054   8.4553 0007673 210.5281 151.0699  0.98813721121662"},{"line1":"1 20774U 90078A   22221.59594334  .00001089  00000-0  83948-4 0  9999","line2":"2 20774  82.9423  69.8315 0805099 285.9326  65.4616 13.75149145578028"},{"line1":"1 20775U 90078B   22221.53246069  .00003746  00000-0  17665-3 0  9997","line2":"2 20775  82.9260 298.7176 0547634 281.0440  72.9654 14.40462609618169"},{"line1":"1 20776U 90079A   22221.09424424  .00000120  00000-0  00000+0 0  9997","line2":"2 20776  13.7898 359.6514 0003095 139.0908 246.1194  1.00273096116823"},{"line1":"1 20777U 90079B   22221.24215940 -.00000280  00000-0  00000-0 0  9995","line2":"2 20777  14.7613   8.5873 0003966 142.6691 210.7330  0.99348334 96779"},{"line1":"1 20788U 90081A   22221.78454341 -.00000106  00000-0 -40668-4 0  9995","line2":"2 20788  98.8203 213.1874 0015092 296.1646  63.7968 14.02769204634450"},{"line1":"1 20791U 90081D   22221.77746554 -.00000011  00000-0  23881-4 0  9990","line2":"2 20791  98.8520 213.3058 0052360 318.9086 214.4979 13.92701825622943"},{"line1":"1 20792U 90081E   22221.83518501  .00000327  00000-0  18707-3 0  9996","line2":"2 20792  98.6499 216.8647 0017394 108.5254 251.7812 14.16050798644236"},{"line1":"1 20793U 90081F   22221.25288378  .00000398  00000-0  22128-3 0  9999","line2":"2 20793  98.6491 213.1383 0022096  66.6518   1.0933 14.16442777643868"},{"line1":"1 20797U 90081G   22221.44223057  .00000338  00000-0  19921-3 0  9998","line2":"2 20797  98.6740 212.4029 0007583 188.4434 325.6038 14.14331054642438"},{"line1":"1 20798U 90081H   22221.83601743  .00000443  00000-0  23846-3 0  9992","line2":"2 20798  98.6413 212.0520 0010824  46.8877 313.3202 14.17673131645256"},{"line1":"1 20799U 77048G   22221.41704297 -.00000269  00000-0  00000-0 0  9994","line2":"2 20799   7.6517 293.5561 0209043  62.8123  27.7724  1.00580899103672"},{"line1":"1 20800U 89020E   22221.32885846 -.00000342  00000-0  00000-0 0  9992","line2":"2 20800  12.6762 340.7934 0127577 216.6827 169.9531  1.00458336102060"},{"line1":"1 20801U 78062D   22220.15392153 -.00000276  00000-0  00000-0 0  9997","line2":"2 20801   9.9231 300.9978 0105690  50.7390 322.7042  0.99476384 32957"},{"line1":"1 20804U 90083A   22221.16247522  .00000034  00000-0  19788-4 0  9996","line2":"2 20804  82.9409 130.4080 0035564 241.5832 284.4031 13.74368426600071"},{"line1":"1 20805U 90083B   22221.60013571  .00000088  00000-0  75122-4 0  9994","line2":"2 20805  82.9356 105.4823 0030471 181.1283 197.2873 13.75958965601576"},{"line1":"1 20811U 90065C   22219.11691484  .00000414  00000-0  15741-3 0  9992","line2":"2 20811  17.6309 192.2709 6944739 190.1331 140.5329  2.65259377 83674"},{"line1":"1 20826U 90086A   22221.29385388  .00000053  00000-0  34148-4 0  9998","line2":"2 20826  82.5221 239.5695 0013673  22.0623 338.1123 13.84274826609522"},{"line1":"1 20827U 90086B   22221.46705546  .00000045  00000-0  27321-4 0  9996","line2":"2 20827  82.5240 244.1094 0013533  35.4207 324.7849 13.83915689609502"},{"line1":"1 20830U 90088A   22221.16536128 -.00000033  00000-0  00000-0 0  9996","line2":"2 20830  55.5681  57.9137 0020995 265.6237  43.0349  1.87752859226367"},{"line1":"1 20835U 75011F   22221.55672321 -.00000225  00000-0  00000+0 0  9991","line2":"2 20835   7.4122 291.6660 0093689 102.8795 265.0337  0.98589438102826"},{"line1":"1 20836U 74060F   22220.86091065  .00000145  00000-0  00000-0 0  9999","line2":"2 20836   4.9646 281.7174 0019992 178.5612 193.4992  1.00267403 31880"},{"line1":"1 20837U 81057F   22221.56283764 -.00000051  00000-0  00000-0 0  9998","line2":"2 20837  10.7499 311.2825 0081875 173.0607 225.3837  0.99368571105416"},{"line1":"1 20843U 90090C   22221.09317416  .00002984  00000-0  18779-2 0  9992","line2":"2 20843  28.3752  49.9958 6741450  87.2036 342.1221  2.95406055323260"},{"line1":"1 20846U 90081J   22221.47541295  .00000070  00000-0  11590-3 0  9990","line2":"2 20846  99.0445 293.8104 0203719 277.3714  92.9119 13.67435537589213"},{"line1":"1 20847U 90081K   22221.36414019  .00014821  00000-0  14188-2 0  9996","line2":"2 20847  98.5529 263.9615 0015440 147.4173 212.8000 14.93215587684381"},{"line1":"1 20848U 90081L   22221.41997656  .00000490  00000-0  46490-3 0  9995","line2":"2 20848  98.9138  38.0616 0213484 296.4722  73.4536 13.75933987592986"}]